{"type": "FeatureCollection", "features": [{"type": "Feature", "properties": {"norad_id": 28890, "name": "BEIJING 1", "group": "dmc", "lat": 76.08879109822236, "lon": -30.316789547536104, "alt_km": 667.0281576877851, "timestamp": "2025-12-12T05:47:28.438578+00:00", "meta": {"OBJECT_NAME": "BEIJING 1", "OBJECT_ID": "2005-043A", "EPOCH": "2025-12-12T00:24:26.337600", "MEAN_MOTION": 14.63365881, "ECCENTRICITY": 0.00152495, "INCLINATION": 98.2653, "RA_OF_ASC_NODE": 113.5219, "ARG_OF_PERICENTER": 143.2744, "MEAN_ANOMALY": 216.9505, "EPHEMERIS_TYPE": 0, "CLASSIFICATION_TYPE": "U", "NORAD_CAT_ID": 28890, "ELEMENT_SET_NO": 999, "REV_AT_EPOCH": 7327, "BSTAR": 0.00018559147, "MEAN_MOTION_DOT": 9.12e-06, "MEAN_MOTION_DDOT": 0}, "tle": {"line1": "1 28890U 05043A   25346.01697150  .00000912  00000+0  18559-3 0  9990", "line2": "2 28890  98.2653 113.5219 0015249 143.2744 216.9505 14.63365881 73272"}}, "geometry": {"type": "Point", "coordinates": [-30.316789547536104, 76.08879109822236]}}, {"type": "Feature", "properties": {"norad_id": 33320, "name": "HUANJING 1A (HJ-1A)", "group": "dmc", "lat": 81.76205954668201, "lon": -137.17000509996527, "alt_km": 603.4515830520595, "timestamp": "2025-12-12T05:47:28.438603+00:00", "meta": {"OBJECT_NAME": "HUANJING 1A (HJ-1A)", "OBJECT_ID": "2008-041A", "EPOCH": "2025-12-12T00:31:05.435616", "MEAN_MOTION": 14.83392883, "ECCENTRICITY": 0.00202184, "INCLINATION": 97.6546, "RA_OF_ASC_NODE": 334.3503, "ARG_OF_PERICENTER": 36.7759, "MEAN_ANOMALY": 323.4838, "EPHEMERIS_TYPE": 0, "CLASSIFICATION_TYPE": "U", "NORAD_CAT_ID": 33320, "ELEMENT_SET_NO": 999, "REV_AT_EPOCH": 93065, "BSTAR": 0.00036800356, "MEAN_MOTION_DOT": 2.979e-05, "MEAN_MOTION_DDOT": 0}, "tle": {"line1": "1 33320U 08041A   25346.02159069  .00002979  00000+0  36800-3 0  9992", "line2": "2 33320  97.6546 334.3503 0020218  36.7759 323.4838 14.83392883930654"}}, "geometry": {"type": "Point", "coordinates": [-137.17000509996527, 81.76205954668201]}}, {"type": "Feature", "properties": {"norad_id": 33321, "name": "HUANJING 1B (HJ-1B)", "group": "dmc", "lat": -44.98184902765218, "lon": -14.031410185254776, "alt_km": 641.5328067537757, "timestamp": "2025-12-12T05:47:28.438619+00:00", "meta": {"OBJECT_NAME": "HUANJING 1B (HJ-1B)", "OBJECT_ID": "2008-041B", "EPOCH": "2025-12-11T23:31:05.420640", "MEAN_MOTION": 14.82817454, "ECCENTRICITY": 0.00381835, "INCLINATION": 97.6406, "RA_OF_ASC_NODE": 338.009, "ARG_OF_PERICENTER": 78.0751, "MEAN_ANOMALY": 282.4741, "EPHEMERIS_TYPE": 0, "CLASSIFICATION_TYPE": "U", "NORAD_CAT_ID": 33321, "ELEMENT_SET_NO": 999, "REV_AT_EPOCH": 93066, "BSTAR": 0.00024207386, "MEAN_MOTION_DOT": 1.932e-05, "MEAN_MOTION_DDOT": 0}, "tle": {"line1": "1 33321U 08041B   25345.97992385  .00001932  00000+0  24207-3 0  9998", "line2": "2 33321  97.6406 338.0090 0038183  78.0751 282.4741 14.82817454930666"}}, "geometry": {"type": "Point", "coordinates": [-14.031410185254776, -44.98184902765218]}}, {"type": "Feature", "properties": {"norad_id": 33446, "name": "YAOGAN-4", "group": "dmc", "lat": -46.18207649506753, "lon": 88.0059653029581, "alt_km": 629.0751908131406, "timestamp": "2025-12-12T05:47:28.438632+00:00", "meta": {"OBJECT_NAME": "YAOGAN-4", "OBJECT_ID": "2008-061A", "EPOCH": "2025-12-11T19:03:10.073376", "MEAN_MOTION": 14.82677773, "ECCENTRICITY": 0.00136364, "INCLINATION": 97.9179, "RA_OF_ASC_NODE": 275.9025, "ARG_OF_PERICENTER": 326.6885, "MEAN_ANOMALY": 33.3469, "EPHEMERIS_TYPE": 0, "CLASSIFICATION_TYPE": "U", "NORAD_CAT_ID": 33446, "ELEMENT_SET_NO": 999, "REV_AT_EPOCH": 91789, "BSTAR": 0.00029431307, "MEAN_MOTION_DOT": 2.323e-05, "MEAN_MOTION_DDOT": 0}, "tle": {"line1": "1 33446U 08061A   25345.79386659  .00002323  00000+0  29431-3 0  9998", "line2": "2 33446  97.9179 275.9025 0013636 326.6885  33.3469 14.82677773917895"}}, "geometry": {"type": "Point", "coordinates": [88.0059653029581, -46.18207649506753]}}, {"type": "Feature", "properties": {"norad_id": 35681, "name": "DEIMOS-1", "group": "dmc", "lat": 10.271649331198342, "lon": 145.45978645533214, "alt_km": 646.217365976172, "timestamp": "2025-12-12T05:47:28.438644+00:00", "meta": {"OBJECT_NAME": "DEIMOS-1", "OBJECT_ID": "2009-041A", "EPOCH": "2025-12-11T23:13:54.203808", "MEAN_MOTION": 14.7495213, "ECCENTRICITY": 0.00027278, "INCLINATION": 97.715, "RA_OF_ASC_NODE": 146.607, "ARG_OF_PERICENTER": 80.9181, "MEAN_ANOMALY": 279.2337, "EPHEMERIS_TYPE": 0, "CLASSIFICATION_TYPE": "U", "NORAD_CAT_ID": 35681, "ELEMENT_SET_NO": 999, "REV_AT_EPOCH": 87928, "BSTAR": 0.00022455325, "MEAN_MOTION_DOT": 1.461e-05, "MEAN_MOTION_DDOT": 0}, "tle": {"line1": "1 35681U 09041A   25345.96798847  .00001461  00000+0  22455-3 0  9996", "line2": "2 35681  97.7150 146.6070 0002727  80.9181 279.2337 14.74952130879286"}}, "geometry": {"type": "Point", "coordinates": [145.45978645533214, 10.271649331198342]}}, {"type": "Feature", "properties": {"norad_id": 35683, "name": "UK-DMC 2", "group": "dmc", "lat": 24.009993736717174, "lon": 117.63149811210245, "alt_km": 642.3016267483481, "timestamp": "2025-12-12T05:47:28.438656+00:00", "meta": {"OBJECT_NAME": "UK-DMC 2", "OBJECT_ID": "2009-041C", "EPOCH": "2025-12-11T23:10:19.136064", "MEAN_MOTION": 14.75620521, "ECCENTRICITY": 0.00014383, "INCLINATION": 97.8562, "RA_OF_ASC_NODE": 120.8897, "ARG_OF_PERICENTER": 96.0909, "MEAN_ANOMALY": 264.0464, "EPHEMERIS_TYPE": 0, "CLASSIFICATION_TYPE": "U", "NORAD_CAT_ID": 35683, "ELEMENT_SET_NO": 999, "REV_AT_EPOCH": 87895, "BSTAR": 0.00029533236, "MEAN_MOTION_DOT": 1.966e-05, "MEAN_MOTION_DDOT": 0}, "tle": {"line1": "1 35683U 09041C   25345.96549926  .00001966  00000+0  29533-3 0  9994", "line2": "2 35683  97.8562 120.8897 0001438  96.0909 264.0464 14.75620521878954"}}, "geometry": {"type": "Point", "coordinates": [117.63149811210245, 24.009993736717174]}}, {"type": "Feature", "properties": {"norad_id": 40715, "name": "DMC3-FM1", "group": "dmc", "lat": 55.00613193063626, "lon": -157.64533865601518, "alt_km": 607.1010835480638, "timestamp": "2025-12-12T05:47:28.438666+00:00", "meta": {"OBJECT_NAME": "DMC3-FM1", "OBJECT_ID": "2015-032A", "EPOCH": "2025-12-12T00:41:28.281120", "MEAN_MOTION": 14.85438297, "ECCENTRICITY": 0.00047601, "INCLINATION": 97.6689, "RA_OF_ASC_NODE": 213.2474, "ARG_OF_PERICENTER": 324.8362, "MEAN_ANOMALY": 35.2538, "EPHEMERIS_TYPE": 0, "CLASSIFICATION_TYPE": "U", "NORAD_CAT_ID": 40715, "ELEMENT_SET_NO": 999, "REV_AT_EPOCH": 56212, "BSTAR": 0.00013620454, "MEAN_MOTION_DOT": 1.123e-05, "MEAN_MOTION_DDOT": 0}, "tle": {"line1": "1 40715U 15032A   25346.02879955  .00001123  00000+0  13620-3 0  9994", "line2": "2 40715  97.6689 213.2474 0004760 324.8362  35.2538 14.85438297562125"}}, "geometry": {"type": "Point", "coordinates": [-157.64533865601518, 55.00613193063626]}}, {"type": "Feature", "properties": {"norad_id": 40716, "name": "DMC3-FM2", "group": "dmc", "lat": -63.507190589980084, "lon": -129.4081911900761, "alt_km": 616.2272883240448, "timestamp": "2025-12-12T05:47:28.438677+00:00", "meta": {"OBJECT_NAME": "DMC3-FM2", "OBJECT_ID": "2015-032B", "EPOCH": "2025-12-11T23:36:52.092000", "MEAN_MOTION": 14.854392, "ECCENTRICITY": 0.00054334, "INCLINATION": 97.6745, "RA_OF_ASC_NODE": 214.6474, "ARG_OF_PERICENTER": 329.1577, "MEAN_ANOMALY": 30.9318, "EPHEMERIS_TYPE": 0, "CLASSIFICATION_TYPE": "U", "NORAD_CAT_ID": 40716, "ELEMENT_SET_NO": 999, "REV_AT_EPOCH": 56211, "BSTAR": 0.00017227858, "MEAN_MOTION_DOT": 1.434e-05, "MEAN_MOTION_DDOT": 0}, "tle": {"line1": "1 40716U 15032B   25345.98393625  .00001434  00000+0  17228-3 0  9997", "line2": "2 40716  97.6745 214.6474 0005433 329.1577  30.9318 14.85439200562110"}}, "geometry": {"type": "Point", "coordinates": [-129.4081911900761, -63.507190589980084]}}, {"type": "Feature", "properties": {"norad_id": 40717, "name": "DMC3-FM3", "group": "dmc", "lat": -0.08436758155386194, "lon": 36.51661480623812, "alt_km": 618.1341268423676, "timestamp": "2025-12-12T05:47:28.438687+00:00", "meta": {"OBJECT_NAME": "DMC3-FM3", "OBJECT_ID": "2015-032C", "EPOCH": "2025-12-12T00:07:59.873376", "MEAN_MOTION": 14.85429796, "ECCENTRICITY": 0.00046824, "INCLINATION": 97.6801, "RA_OF_ASC_NODE": 216.3006, "ARG_OF_PERICENTER": 331.382, "MEAN_ANOMALY": 28.7137, "EPHEMERIS_TYPE": 0, "CLASSIFICATION_TYPE": "U", "NORAD_CAT_ID": 40717, "ELEMENT_SET_NO": 999, "REV_AT_EPOCH": 56212, "BSTAR": 0.00017790383, "MEAN_MOTION_DOT": 1.482e-05, "MEAN_MOTION_DDOT": 0}, "tle": {"line1": "1 40717U 15032C   25346.00555409  .00001482  00000+0  17790-3 0  9999", "line2": "2 40717  97.6801 216.3006 0004682 331.3820  28.7137 14.85429796562129"}}, "geometry": {"type": "Point", "coordinates": [36.51661480623812, -0.08436758155386194]}}]}